ONEWEB-0332             
1 49279U 21090A   23325.45798683 -.00000210  00000+0 -59991-3 0  9998
2 49279  87.8942 116.5883 0001162  84.5941 275.5321 13.14504515104250
ONEWEB-0347             
1 49280U 21090B   23325.41909771  .00000014  00000+0  35939-5 0  9996
2 49280  87.9230 101.3090 0001157  84.7487 275.3779 13.20773019107124
ONEWEB-0349             
1 49281U 21090C   23325.45065259  .00000120  00000+0  26198-3 0  9998
2 49281  87.9179 101.3172 0001946 104.9204 255.2145 13.20772783105912
ONEWEB-0353             
1 49282U 21090D   23325.45005887 -.00000200  00000+0 -57522-3 0  9996
2 49282  87.8947 116.5719 0001189  85.7169 274.4096 13.14501405104253
ONEWEB-0356             
1 49283U 21090E   23325.44854993 -.00000375  00000+0 -95346-3 0  9995
2 49283  87.9169 101.3182 0002557  76.8842 283.2576 13.20775688105914
ONEWEB-0358             
1 49284U 21090F   23325.40226109  .00000139  00000+0  31060-3 0  9993
2 49284  87.9180 101.3075 0001932  98.1151 262.0202 13.20773208106632
ONEWEB-0359             
1 49285U 21090G   23325.32439912  .00000135  00000+0  30099-3 0  9990
2 49285  87.9166 101.3504 0001894 111.4507 248.6829 13.20771302106600
ONEWEB-0360             
1 49286U 21090H   23325.31387743  .00000108  00000+0  23313-3 0  9995
2 49286  87.9173 101.3530 0001599 104.5297 255.6014 13.20773497105913
